start=new Date('2021-10-13T00:00:00.000Z').valueOf();
sats=[{"ECCENTRICITY":"0.00018570","MEAN_MOTION_DDOT":"0.0000000000000","RCS_SIZE":"LARGE","PERIOD":"95.592","FILE":"3158851","SEMIMAJOR_AXIS":"6925.351","MEAN_MOTION":"15.06399107","APOAPSIS":"548.502","TLE_LINE2":"2 46537  53.0552 201.9907 0001857  70.7060 289.4130 15.06399107 56915","CLASSIFICATION_TYPE":"U","PERIAPSIS":"545.930","REF_FRAME":"TEME","GP_ID":"186981914","COUNTRY_CODE":"US","LAUNCH_DATE":"2020-10-06","DECAY_DATE":null,"OBJECT_NAME":"STARLINK-1672","ELEMENT_SET_NO":"999","OBJECT_TYPE":"PAYLOAD","NORAD_CAT_ID":"46537","MEAN_ANOMALY":"289.4130","REV_AT_EPOCH":"5691","SITE":"AFETR","ARG_OF_PERICENTER":"70.7060","INCLINATION":"53.0552","OBJECT_ID":"2020-070F","CENTER_NAME":"EARTH","EPHEMERIS_TYPE":"0","MEAN_MOTION_DOT":"0.00000376","TLE_LINE1":"1 46537U 20070F   21285.18149830  .00000376  00000-0  44121-4 0  9998","RA_OF_ASC_NODE":"201.9907","MEAN_ELEMENT_THEORY":"SGP4","TIME_SYSTEM":"UTC","BSTAR":"0.00004412100000","EPOCH":"2021-10-12T04:21:21.453120"},{"MEAN_MOTION":"15.06401030","SEMIMAJOR_AXIS":"6925.345","APOAPSIS":"548.624","PERIOD":"95.592","RCS_SIZE":"LARGE","ECCENTRICITY":"0.00020410","MEAN_MOTION_DDOT":"0.0000000000000","FILE":"3158851","OBJECT_NAME":"STARLINK-1678","DECAY_DATE":null,"LAUNCH_DATE":"2020-10-06","ELEMENT_SET_NO":"999","GP_ID":"186982166","REF_FRAME":"TEME","CLASSIFICATION_TYPE":"U","TLE_LINE2":"2 46538  53.0538 200.6015 0002041  71.3091 288.8120 15.06401030 56958","PERIAPSIS":"545.797","COUNTRY_CODE":"US","SITE":"AFETR","REV_AT_EPOCH":"5695","MEAN_ANOMALY":"288.8120","NORAD_CAT_ID":"46538","OBJECT_TYPE":"PAYLOAD","MEAN_ELEMENT_THEORY":"SGP4","RA_OF_ASC_NODE":"200.6015","TLE_LINE1":"1 46538U 20070G   21285.49112032  .00001159  00000-0  96672-4 0  9995","MEAN_MOTION_DOT":"0.00001159","EPHEMERIS_TYPE":"0","BSTAR":"0.00009667200000","EPOCH":"2021-10-12T11:47:12.795648","TIME_SYSTEM":"UTC","ARG_OF_PERICENTER":"71.3091","CENTER_NAME":"EARTH","OBJECT_ID":"2020-070G","INCLINATION":"53.0538"},{"SITE":"AFETR","REV_AT_EPOCH":"5696","MEAN_ANOMALY":"203.1848","NORAD_CAT_ID":"46539","OBJECT_TYPE":"PAYLOAD","RA_OF_ASC_NODE":"200.6295","MEAN_ELEMENT_THEORY":"SGP4","EPHEMERIS_TYPE":"0","TLE_LINE1":"1 46539U 20070H   21285.48374582  .00000966  00000-0  83695-4 0  9991","MEAN_MOTION_DOT":"0.00000966","EPOCH":"2021-10-12T11:36:35.638848","BSTAR":"0.00008369500000","TIME_SYSTEM":"UTC","ARG_OF_PERICENTER":"156.9145","CENTER_NAME":"EARTH","INCLINATION":"53.0530","OBJECT_ID":"2020-070H","MEAN_MOTION":"15.06398435","SEMIMAJOR_AXIS":"6925.353","APOAPSIS":"547.290","RCS_SIZE":"LARGE","PERIOD":"95.592","MEAN_MOTION_DDOT":"0.0000000000000","ECCENTRICITY":"0.00001040","FILE":"3158851","OBJECT_NAME":"STARLINK-1684","LAUNCH_DATE":"2020-10-06","DECAY_DATE":null,"ELEMENT_SET_NO":"999","REF_FRAME":"TEME","GP_ID":"186982417","PERIAPSIS":"547.146","TLE_LINE2":"2 46539  53.0530 200.6295 0000104 156.9145 203.1848 15.06398435 56961","CLASSIFICATION_TYPE":"U","COUNTRY_CODE":"US"},{"OBJECT_TYPE":"PAYLOAD","NORAD_CAT_ID":"46541","REV_AT_EPOCH":"5722","MEAN_ANOMALY":"282.9591","SITE":"AFETR","OBJECT_ID":"2020-070K","INCLINATION":"53.0537","CENTER_NAME":"EARTH","ARG_OF_PERICENTER":"77.1578","TIME_SYSTEM":"UTC","BSTAR":"0.00020190000000","EPOCH":"2021-10-12T09:42:28.480320","TLE_LINE1":"1 46541U 20070K   21285.40449630  .00002727  00000-0  20190-3 0  9990","MEAN_MOTION_DOT":"0.00002727","EPHEMERIS_TYPE":"0","MEAN_ELEMENT_THEORY":"SGP4","RA_OF_ASC_NODE":"180.9760","FILE":"3158851","MEAN_MOTION_DDOT":"0.0000000000000","ECCENTRICITY":"0.00016080","PERIOD":"95.592","RCS_SIZE":"LARGE","APOAPSIS":"548.319","MEAN_MOTION":"15.06402500","SEMIMAJOR_AXIS":"6925.341","COUNTRY_CODE":"US","PERIAPSIS":"546.092","TLE_LINE2":"2 46541  53.0537 180.9760 0001608  77.1578 282.9591 15.06402500 57221","CLASSIFICATION_TYPE":"U","REF_FRAME":"TEME","GP_ID":"186981165","ELEMENT_SET_NO":"999","DECAY_DATE":null,"LAUNCH_DATE":"2020-10-06","OBJECT_NAME":"STARLINK-1687"},{"LAUNCH_DATE":"2020-10-06","DECAY_DATE":null,"OBJECT_NAME":"STARLINK-1692","ELEMENT_SET_NO":"999","TLE_LINE2":"2 46542  53.0537 200.6835 0001846  63.1484 296.9694 15.06396173 56956","CLASSIFICATION_TYPE":"U","PERIAPSIS":"545.947","REF_FRAME":"TEME","GP_ID":"186981415","COUNTRY_CODE":"US","SEMIMAJOR_AXIS":"6925.360","MEAN_MOTION":"15.06396173","APOAPSIS":"548.504","MEAN_MOTION_DDOT":"0.0000000000000","ECCENTRICITY":"0.00018460","RCS_SIZE":"LARGE","PERIOD":"95.592","FILE":"3158851","EPHEMERIS_TYPE":"0","TLE_LINE1":"1 46542U 20070L   21285.47269110 -.00000980  00000-0 -46909-4 0  9999","MEAN_MOTION_DOT":"-0.00000980","RA_OF_ASC_NODE":"200.6835","MEAN_ELEMENT_THEORY":"SGP4","TIME_SYSTEM":"UTC","BSTAR":"-0.00004690900000","EPOCH":"2021-10-12T11:20:40.511040","ARG_OF_PERICENTER":"63.1484","INCLINATION":"53.0537","OBJECT_ID":"2020-070L","CENTER_NAME":"EARTH","MEAN_ANOMALY":"296.9694","REV_AT_EPOCH":"5695","SITE":"AFETR","OBJECT_TYPE":"PAYLOAD","NORAD_CAT_ID":"46542"},{"NORAD_CAT_ID":"46543","OBJECT_TYPE":"PAYLOAD","SITE":"AFETR","REV_AT_EPOCH":"5695","MEAN_ANOMALY":"289.4495","CENTER_NAME":"EARTH","INCLINATION":"53.0540","OBJECT_ID":"2020-070M","ARG_OF_PERICENTER":"70.6682","EPOCH":"2021-10-12T10:59:26.100672","BSTAR":"-0.00002617500000","TIME_SYSTEM":"UTC","RA_OF_ASC_NODE":"200.7382","MEAN_ELEMENT_THEORY":"SGP4","EPHEMERIS_TYPE":"0","TLE_LINE1":"1 46543U 20070M   21285.45794098 -.00000671  00000-0 -26175-4 0  9996","MEAN_MOTION_DOT":"-0.00000671","FILE":"3158851","RCS_SIZE":"LARGE","PERIOD":"95.592","MEAN_MOTION_DDOT":"0.0000000000000","ECCENTRICITY":"0.00017340","APOAPSIS":"548.423","MEAN_MOTION":"15.06397178","SEMIMAJOR_AXIS":"6925.357","COUNTRY_CODE":"US","REF_FRAME":"TEME","GP_ID":"186982666","TLE_LINE2":"2 46543  53.0540 200.7382 0001734  70.6682 289.4495 15.06397178 56950","PERIAPSIS":"546.021","CLASSIFICATION_TYPE":"U","ELEMENT_SET_NO":"999","OBJECT_NAME":"STARLINK-1693","LAUNCH_DATE":"2020-10-06","DECAY_DATE":null},{"MEAN_MOTION_DDOT":"0.0000000000000","ECCENTRICITY":"0.00017730","PERIOD":"95.592","RCS_SIZE":"LARGE","FILE":"3159207","SEMIMAJOR_AXIS":"6925.359","MEAN_MOTION":"15.06396526","APOAPSIS":"548.452","TLE_LINE2":"2 46544  53.0551 185.7568 0001773  77.8160 282.3027 15.06396526 57178","PERIAPSIS":"545.996","CLASSIFICATION_TYPE":"U","REF_FRAME":"TEME","GP_ID":"186991334","COUNTRY_CODE":"US","DECAY_DATE":null,"LAUNCH_DATE":"2020-10-06","OBJECT_NAME":"STARLINK-1694","ELEMENT_SET_NO":"999","OBJECT_TYPE":"PAYLOAD","NORAD_CAT_ID":"46544","MEAN_ANOMALY":"282.3027","REV_AT_EPOCH":"5717","SITE":"AFETR","ARG_OF_PERICENTER":"77.8160","OBJECT_ID":"2020-070N","INCLINATION":"53.0551","CENTER_NAME":"EARTH","TLE_LINE1":"1 46544U 20070N   21285.45380169  .00000975  00000-0  84345-4 0  9995","MEAN_MOTION_DOT":"0.00000975","EPHEMERIS_TYPE":"0","MEAN_ELEMENT_THEORY":"SGP4","RA_OF_ASC_NODE":"185.7568","TIME_SYSTEM":"UTC","EPOCH":"2021-10-12T10:53:28.466016","BSTAR":"0.00008434500000"},{"ECCENTRICITY":"0.00019810","MEAN_MOTION_DDOT":"0.0000000000000","RCS_SIZE":"LARGE","PERIOD":"95.592","FILE":"3159338","SEMIMAJOR_AXIS":"6925.331","MEAN_MOTION":"15.06405648","APOAPSIS":"548.568","CLASSIFICATION_TYPE":"U","TLE_LINE2":"2 46545  53.0551 199.3917 0001981  71.9051 288.2154 15.06405648 56994","PERIAPSIS":"545.824","REF_FRAME":"TEME","GP_ID":"187015278","COUNTRY_CODE":"US","LAUNCH_DATE":"2020-10-06","DECAY_DATE":null,"OBJECT_NAME":"STARLINK-1696","ELEMENT_SET_NO":"999","OBJECT_TYPE":"PAYLOAD","NORAD_CAT_ID":"46545","MEAN_ANOMALY":"288.2154","REV_AT_EPOCH":"5699","SITE":"AFETR","ARG_OF_PERICENTER":"71.9051","INCLINATION":"53.0551","OBJECT_ID":"2020-070P","CENTER_NAME":"EARTH","EPHEMERIS_TYPE":"0","TLE_LINE1":"1 46545U 20070P   21285.76019004  .00001268  00000-0  10402-3 0  9995","MEAN_MOTION_DOT":"0.00001268","RA_OF_ASC_NODE":"199.3917","MEAN_ELEMENT_THEORY":"SGP4","TIME_SYSTEM":"UTC","BSTAR":"0.00010402000000","EPOCH":"2021-10-12T18:14:40.419456"},{"COUNTRY_CODE":"US","GP_ID":"187016028","REF_FRAME":"TEME","PERIAPSIS":"546.010","TLE_LINE2":"2 46546  53.0536 199.4487 0001702  64.8399 295.2766 15.06408259 56996","CLASSIFICATION_TYPE":"U","ELEMENT_SET_NO":"999","OBJECT_NAME":"STARLINK-1697","DECAY_DATE":null,"LAUNCH_DATE":"2020-10-06","FILE":"3159338","PERIOD":"95.592","RCS_SIZE":"LARGE","ECCENTRICITY":"0.00017020","MEAN_MOTION_DDOT":"0.0000000000000","APOAPSIS":"548.367","SEMIMAJOR_AXIS":"6925.323","MEAN_MOTION":"15.06408259","CENTER_NAME":"EARTH","OBJECT_ID":"2020-070Q","INCLINATION":"53.0536","ARG_OF_PERICENTER":"64.8399","BSTAR":"0.00005082000000","EPOCH":"2021-10-12T17:53:25.952064","TIME_SYSTEM":"UTC","MEAN_ELEMENT_THEORY":"SGP4","RA_OF_ASC_NODE":"199.4487","MEAN_MOTION_DOT":"0.00000476","TLE_LINE1":"1 46546U 20070Q   21285.74543926  .00000476  00000-0  50820-4 0  9998","EPHEMERIS_TYPE":"0","NORAD_CAT_ID":"46546","OBJECT_TYPE":"PAYLOAD","SITE":"AFETR","REV_AT_EPOCH":"5699","MEAN_ANOMALY":"295.2766"},{"EPOCH":"2021-10-12T17:00:21.651552","BSTAR":"0.00019581000000","TIME_SYSTEM":"UTC","MEAN_ELEMENT_THEORY":"SGP4","RA_OF_ASC_NODE":"199.6220","TLE_LINE1":"1 46547U 20070R   21285.70858393  .00002637  00000-0  19581-3 0  9991","MEAN_MOTION_DOT":"0.00002637","EPHEMERIS_TYPE":"0","CENTER_NAME":"EARTH","OBJECT_ID":"2020-070R","INCLINATION":"53.0537","ARG_OF_PERICENTER":"72.1778","SITE":"AFETR","MEAN_ANOMALY":"287.9404","REV_AT_EPOCH":"5699","NORAD_CAT_ID":"46547","OBJECT_TYPE":"PAYLOAD","ELEMENT_SET_NO":"999","OBJECT_NAME":"STARLINK-1698","DECAY_DATE":null,"LAUNCH_DATE":"2020-10-06","COUNTRY_CODE":"US","GP_ID":"187014776","REF_FRAME":"TEME","PERIAPSIS":"545.960","TLE_LINE2":"2 46547  53.0537 199.6220 0001769  72.1778 287.9404 15.06409199 56992","CLASSIFICATION_TYPE":"U","APOAPSIS":"548.410","MEAN_MOTION":"15.06409199","SEMIMAJOR_AXIS":"6925.320","FILE":"3159338","PERIOD":"95.592","RCS_SIZE":"LARGE","MEAN_MOTION_DDOT":"0.0000000000000","ECCENTRICITY":"0.00017690"}];
